STARLINK-30085          
1 56709U 23067X   26068.82202005  .00001105  00000+0  49687-4 0  9990
2 56709  43.0009 270.0210 0001763 261.6576  98.4075 15.27572641155461
FLOCK 4G-26             
1 62633U 25009AA  26068.80489479  .00011283  00000+0  42469-3 0  9999
2 62633  97.4054 151.3913 0001988 299.1273  60.9767 15.27281631 63733
